STARLINK-34689          
1 64949U 25158T   26032.61185596  .00005397  00000+0  37802-3 0  9993
2 64949  97.6031 258.4732 0002370  88.3758 271.7740 15.05644439 29923
STARLINK-34586          
1 64950U 25158U   26032.60076742  .00001862  00000+0  13321-3 0  9999
2 64950  97.6020 258.4885 0002639  85.0696 275.0832 15.05651009 29925
STARLINK-34738          
1 64951U 25158V   26032.56754023 -.00000176  00000+0 -79794-5 0  9997
2 64951  97.6016 258.5351 0003071  97.4400 262.7176 15.05673816 29925
STARLINK-34744          
1 64952U 25158W   26032.61737878  .00005706  00000+0  39919-3 0  9998
2 64952  97.6036 258.4590 0002781  86.8316 273.3229 15.05659468 29921
STARLINK-34701          
1 64953U 25158X   26032.62847983 -.00004834  00000+0 -33109-3 0  9997
2 64953  97.6031 258.6062 0002326  85.6432 274.5060 15.05638258 29935
STARLINK-34761          
1 64954U 25158Y   26032.61460935  .00000670  00000+0  50636-4 0  9992
2 64954  97.6034 258.4705 0002395  84.2086 275.9414 15.05648653 29924
STARLINK-34732          
1 64955U 25158Z   26032.58138452  .00003880  00000+0  27288-3 0  9997
2 64955  97.6014 258.5151 0001674  87.9527 272.1892 15.05661076 29921
STARLINK-34617          
1 65015U 25161A   26032.61815024  .00022851  00000+0  78088-3 0  9993
2 65015  53.1573 102.0062 0001160  77.1175 282.9955 15.30215812 28705
STARLINK-34627          
1 65016U 25161B   26032.47169165  .00024304  00000+0  83030-3 0  9994
2 65016  53.1587 102.5121 0001212  68.3551 291.7579 15.30188833 29893
STARLINK-34549          
1 65017U 25161C   26032.49901097  .00014978  00000+0  51683-3 0  9990
2 65017  53.1593 101.9674 0001201 120.4300 239.6820 15.30199150 29903
STARLINK-34623          
1 65018U 25161D   26032.42853688  .00030616  00000+0  10408-2 0  9992
2 65018  53.1584 102.9543 0000982 123.4433 236.6662 15.30223129 29775
STARLINK-34232          
1 65019U 25161E   26032.67607873  .00027564  00000+0  93900-3 0  9990
2 65019  53.1579 101.6542 0001121  64.2648 295.8469 15.30211386 29922
STARLINK-34772          
1 65020U 25161F   26032.46008329  .00023812  00000+0  81332-3 0  9998
2 65020  53.1597 102.4386 0001095  86.8231 273.2896 15.30207765 29893
STARLINK-34778          
1 65021U 25161G   26032.48963057  .00022579  00000+0  77180-3 0  9994
2 65021  53.1591 102.6217 0000936  87.1611 272.9497 15.30214349 29778
STARLINK-34789          
1 65022U 25161H   26032.61603796  .00018935  00000+0  64967-3 0  9991
2 65022  53.1576 101.9892 0001326  90.5887 269.5266 15.30206271 29793
STARLINK-34858          
1 65023U 25161J   26032.60654248  .00032184  00000+0  10940-2 0  9992
2 65023  53.1585 101.9308 0001102  81.3620 278.7506 15.30201702 29794
