[{"OBJECT_NAME":"STARLINK-34689","OBJECT_ID":"2025-158T","EPOCH":"2026-02-01T14:41:04.354944","MEAN_MOTION":15.05644439,"ECCENTRICITY":0.00023708,"INCLINATION":97.6031,"RA_OF_ASC_NODE":258.4732,"ARG_OF_PERICENTER":88.3758,"MEAN_ANOMALY":271.774,"EPHEMERIS_TYPE":0,"CLASSIFICATION_TYPE":"U","NORAD_CAT_ID":64949,"ELEMENT_SET_NO":999,"REV_AT_EPOCH":2992,"BSTAR":0.0003780193,"MEAN_MOTION_DOT":5.397e-5,"MEAN_MOTION_DDOT":0},{"OBJECT_NAME":"STARLINK-34586","OBJECT_ID":"2025-158U","EPOCH":"2026-02-01T14:25:06.305088","MEAN_MOTION":15.05651009,"ECCENTRICITY":0.00026391,"INCLINATION":97.602,"RA_OF_ASC_NODE":258.4885,"ARG_OF_PERICENTER":85.0696,"MEAN_ANOMALY":275.0832,"EPHEMERIS_TYPE":0,"CLASSIFICATION_TYPE":"U","NORAD_CAT_ID":64950,"ELEMENT_SET_NO":999,"REV_AT_EPOCH":2992,"BSTAR":0.00013320957,"MEAN_MOTION_DOT":1.862e-5,"MEAN_MOTION_DDOT":0},{"OBJECT_NAME":"STARLINK-34738","OBJECT_ID":"2025-158V","EPOCH":"2026-02-01T13:37:15.475872","MEAN_MOTION":15.05673816,"ECCENTRICITY":0.00030718,"INCLINATION":97.6016,"RA_OF_ASC_NODE":258.5351,"ARG_OF_PERICENTER":97.44,"MEAN_ANOMALY":262.7176,"EPHEMERIS_TYPE":0,"CLASSIFICATION_TYPE":"U","NORAD_CAT_ID":64951,"ELEMENT_SET_NO":999,"REV_AT_EPOCH":2992,"BSTAR":-7.979357e-6,"MEAN_MOTION_DOT":-1.76e-6,"MEAN_MOTION_DDOT":0},{"OBJECT_NAME":"STARLINK-34744","OBJECT_ID":"2025-158W","EPOCH":"2026-02-01T14:49:01.526592","MEAN_MOTION":15.05659468,"ECCENTRICITY":0.00027814,"INCLINATION":97.6036,"RA_OF_ASC_NODE":258.459,"ARG_OF_PERICENTER":86.8316,"MEAN_ANOMALY":273.3229,"EPHEMERIS_TYPE":0,"CLASSIFICATION_TYPE":"U","NORAD_CAT_ID":64952,"ELEMENT_SET_NO":999,"REV_AT_EPOCH":2992,"BSTAR":0.00039919158,"MEAN_MOTION_DOT":5.706e-5,"MEAN_MOTION_DDOT":0},{"OBJECT_NAME":"STARLINK-34701","OBJECT_ID":"2025-158X","EPOCH":"2026-02-01T15:05:00.657312","MEAN_MOTION":15.05638258,"ECCENTRICITY":0.00023263,"INCLINATION":97.6031,"RA_OF_ASC_NODE":258.6062,"ARG_OF_PERICENTER":85.6432,"MEAN_ANOMALY":274.506,"EPHEMERIS_TYPE":0,"CLASSIFICATION_TYPE":"U","NORAD_CAT_ID":64953,"ELEMENT_SET_NO":999,"REV_AT_EPOCH":2993,"BSTAR":-0.00033109074,"MEAN_MOTION_DOT":-4.834e-5,"MEAN_MOTION_DDOT":0},{"OBJECT_NAME":"STARLINK-34761","OBJECT_ID":"2025-158Y","EPOCH":"2026-02-01T14:45:02.247840","MEAN_MOTION":15.05648653,"ECCENTRICITY":0.00023959,"INCLINATION":97.6034,"RA_OF_ASC_NODE":258.4705,"ARG_OF_PERICENTER":84.2086,"MEAN_ANOMALY":275.9414,"EPHEMERIS_TYPE":0,"CLASSIFICATION_TYPE":"U","NORAD_CAT_ID":64954,"ELEMENT_SET_NO":999,"REV_AT_EPOCH":2992,"BSTAR":5.0636276e-5,"MEAN_MOTION_DOT":6.7e-6,"MEAN_MOTION_DDOT":0},{"OBJECT_NAME":"STARLINK-34732","OBJECT_ID":"2025-158Z","EPOCH":"2026-02-01T13:57:11.622528","MEAN_MOTION":15.05661076,"ECCENTRICITY":0.00016747,"INCLINATION":97.6014,"RA_OF_ASC_NODE":258.5151,"ARG_OF_PERICENTER":87.9527,"MEAN_ANOMALY":272.1892,"EPHEMERIS_TYPE":0,"CLASSIFICATION_TYPE":"U","NORAD_CAT_ID":64955,"ELEMENT_SET_NO":999,"REV_AT_EPOCH":2992,"BSTAR":0.00027288044,"MEAN_MOTION_DOT":3.88e-5,"MEAN_MOTION_DDOT":0},{"OBJECT_NAME":"STARLINK-34617","OBJECT_ID":"2025-161A","EPOCH":"2026-02-01T14:50:08.180736","MEAN_MOTION":15.30215812,"ECCENTRICITY":0.00011608,"INCLINATION":53.1573,"RA_OF_ASC_NODE":102.0062,"ARG_OF_PERICENTER":77.1175,"MEAN_ANOMALY":282.9955,"EPHEMERIS_TYPE":0,"CLASSIFICATION_TYPE":"U","NORAD_CAT_ID":65015,"ELEMENT_SET_NO":999,"REV_AT_EPOCH":2870,"BSTAR":0.00078088086,"MEAN_MOTION_DOT":0.00022851,"MEAN_MOTION_DDOT":0},{"OBJECT_NAME":"STARLINK-34627","OBJECT_ID":"2025-161B","EPOCH":"2026-02-01T11:19:14.158560","MEAN_MOTION":15.30188833,"ECCENTRICITY":0.00012123,"INCLINATION":53.1587,"RA_OF_ASC_NODE":102.5121,"ARG_OF_PERICENTER":68.3551,"MEAN_ANOMALY":291.7579,"EPHEMERIS_TYPE":0,"CLASSIFICATION_TYPE":"U","NORAD_CAT_ID":65016,"ELEMENT_SET_NO":999,"REV_AT_EPOCH":2989,"BSTAR":0.00083029793,"MEAN_MOTION_DOT":0.00024304,"MEAN_MOTION_DDOT":0},{"OBJECT_NAME":"STARLINK-34549","OBJECT_ID":"2025-161C","EPOCH":"2026-02-01T11:58:34.547808","MEAN_MOTION":15.3019915,"ECCENTRICITY":0.00012019,"INCLINATION":53.1593,"RA_OF_ASC_NODE":101.9674,"ARG_OF_PERICENTER":120.43,"MEAN_ANOMALY":239.682,"EPHEMERIS_TYPE":0,"CLASSIFICATION_TYPE":"U","NORAD_CAT_ID":65017,"ELEMENT_SET_NO":999,"REV_AT_EPOCH":2990,"BSTAR":0.00051682626,"MEAN_MOTION_DOT":0.00014978,"MEAN_MOTION_DDOT":0},{"OBJECT_NAME":"STARLINK-34623","OBJECT_ID":"2025-161D","EPOCH":"2026-02-01T10:17:05.586432","MEAN_MOTION":15.30223129,"ECCENTRICITY":9.824e-5,"INCLINATION":53.1584,"RA_OF_ASC_NODE":102.9543,"ARG_OF_PERICENTER":123.4433,"MEAN_ANOMALY":236.6662,"EPHEMERIS_TYPE":0,"CLASSIFICATION_TYPE":"U","NORAD_CAT_ID":65018,"ELEMENT_SET_NO":999,"REV_AT_EPOCH":2977,"BSTAR":0.0010408134,"MEAN_MOTION_DOT":0.00030616,"MEAN_MOTION_DDOT":0},{"OBJECT_NAME":"STARLINK-34232","OBJECT_ID":"2025-161E","EPOCH":"2026-02-01T16:13:33.202272","MEAN_MOTION":15.30211386,"ECCENTRICITY":0.00011214,"INCLINATION":53.1579,"RA_OF_ASC_NODE":101.6542,"ARG_OF_PERICENTER":64.2648,"MEAN_ANOMALY":295.8469,"EPHEMERIS_TYPE":0,"CLASSIFICATION_TYPE":"U","NORAD_CAT_ID":65019,"ELEMENT_SET_NO":999,"REV_AT_EPOCH":2992,"BSTAR":0.00093899686,"MEAN_MOTION_DOT":0.00027564,"MEAN_MOTION_DDOT":0},{"OBJECT_NAME":"STARLINK-34772","OBJECT_ID":"2025-161F","EPOCH":"2026-02-01T11:02:31.196256","MEAN_MOTION":15.30207765,"ECCENTRICITY":0.00010958,"INCLINATION":53.1597,"RA_OF_ASC_NODE":102.4386,"ARG_OF_PERICENTER":86.8231,"MEAN_ANOMALY":273.2896,"EPHEMERIS_TYPE":0,"CLASSIFICATION_TYPE":"U","NORAD_CAT_ID":65020,"ELEMENT_SET_NO":999,"REV_AT_EPOCH":2989,"BSTAR":0.000813323,"MEAN_MOTION_DOT":0.00023812,"MEAN_MOTION_DDOT":0},{"OBJECT_NAME":"STARLINK-34778","OBJECT_ID":"2025-161G","EPOCH":"2026-02-01T11:45:04.081248","MEAN_MOTION":15.30214349,"ECCENTRICITY":9.365e-5,"INCLINATION":53.1591,"RA_OF_ASC_NODE":102.6217,"ARG_OF_PERICENTER":87.1611,"MEAN_ANOMALY":272.9497,"EPHEMERIS_TYPE":0,"CLASSIFICATION_TYPE":"U","NORAD_CAT_ID":65021,"ELEMENT_SET_NO":999,"REV_AT_EPOCH":2977,"BSTAR":0.00077180427,"MEAN_MOTION_DOT":0.00022579,"MEAN_MOTION_DDOT":0},{"OBJECT_NAME":"STARLINK-34789","OBJECT_ID":"2025-161H","EPOCH":"2026-02-01T14:47:05.679744","MEAN_MOTION":15.30206271,"ECCENTRICITY":0.00013266,"INCLINATION":53.1576,"RA_OF_ASC_NODE":101.9892,"ARG_OF_PERICENTER":90.5887,"MEAN_ANOMALY":269.5266,"EPHEMERIS_TYPE":0,"CLASSIFICATION_TYPE":"U","NORAD_CAT_ID":65022,"ELEMENT_SET_NO":999,"REV_AT_EPOCH":2979,"BSTAR":0.00064966901,"MEAN_MOTION_DOT":0.00018935,"MEAN_MOTION_DDOT":0},{"OBJECT_NAME":"STARLINK-34858","OBJECT_ID":"2025-161J","EPOCH":"2026-02-01T14:33:25.270272","MEAN_MOTION":15.30201702,"ECCENTRICITY":0.00011023,"INCLINATION":53.1585,"RA_OF_ASC_NODE":101.9308,"ARG_OF_PERICENTER":81.362,"MEAN_ANOMALY":278.7506,"EPHEMERIS_TYPE":0,"CLASSIFICATION_TYPE":"U","NORAD_CAT_ID":65023,"ELEMENT_SET_NO":999,"REV_AT_EPOCH":2979,"BSTAR":0.0010940071,"MEAN_MOTION_DOT":0.00032184,"MEAN_MOTION_DDOT":0}]
